{
  "norad_id": 47592,
  "name": "STARLINK-1997",
  "history": [
    {
      "epoch": "2026-03-28T19:57:40.472352Z",
      "apogee_km": 363.3760602659413,
      "perigee_km": 357.69266483876436,
      "latitude_deg": 7.008465210062159e-05,
      "longitude_deg": 140.46430264852964,
      "height_km": 363.9864800947626,
      "semi_major_axis_km": 6738.671362552353,
      "eccentricity": 0.0004217,
      "inclination_deg": 53.0397,
      "raan_deg": 266.1294,
      "arg_perigee_deg": 153.9421,
      "mean_anomaly_deg": 206.1809,
      "mean_motion_rev_day": 15.6942782
    },
    {
      "epoch": "2026-03-29T05:07:51.043872Z",
      "apogee_km": 363.24672336371896,
      "perigee_km": 357.21184252071544,
      "latitude_deg": 6.001961032127261e-05,
      "longitude_deg": 0.655364938438637,
      "height_km": 363.92878233540716,
      "semi_major_axis_km": 6738.3662829422165,
      "eccentricity": 0.0004478,
      "inclination_deg": 53.0396,
      "raan_deg": 264.2411,
      "arg_perigee_deg": 158.1124,
      "mean_anomaly_deg": 202.0085,
      "mean_motion_rev_day": 15.69534405
    },
    {
      "epoch": "2026-03-30T04:03:08.240832Z",
      "apogee_km": 362.1545309437006,
      "perigee_km": 356.88164207299997,
      "latitude_deg": 8.44025704831401e-06,
      "longitude_deg": 11.174022699594598,
      "height_km": 362.8249139444593,
      "semi_major_axis_km": 6737.65508650835,
      "eccentricity": 0.0003913,
      "inclination_deg": 53.0396,
      "raan_deg": 259.5228,
      "arg_perigee_deg": 155.9219,
      "mean_anomaly_deg": 204.1981,
      "mean_motion_rev_day": 15.69782921
    },
    {
      "epoch": "2026-03-30T14:00:03.000384Z",
      "apogee_km": 361.71414908769384,
      "perigee_km": 356.5513792674037,
      "latitude_deg": -3.423690450329032,
      "longitude_deg": 42.05256201324325,
      "height_km": 358.16319881829224,
      "semi_major_axis_km": 6737.2697641775485,
      "eccentricity": 0.00038315,
      "inclination_deg": 53.0395,
      "raan_deg": 257.4724,
      "arg_perigee_deg": 161.3421,
      "mean_anomaly_deg": 22.799,
      "mean_motion_rev_day": 15.69917593
    },
    {
      "epoch": "2026-03-30T22:00:00.999936Z",
      "apogee_km": 361.26034846946004,
      "perigee_km": 356.6314335567031,
      "latitude_deg": -53.183242358265325,
      "longitude_deg": 6.025545104010956,
      "height_km": 378.08089491104994,
      "semi_major_axis_km": 6737.082891013081,
      "eccentricity": 0.00034354,
      "inclination_deg": 53.0382,
      "raan_deg": 255.8255,
      "arg_perigee_deg": 162.1532,
      "mean_anomaly_deg": 106.9084,
      "mean_motion_rev_day": 15.69982913
    },
    {
      "epoch": "2026-03-31T20:00:01.999008Z",
      "apogee_km": 360.4120298543821,
      "perigee_km": 356.09131016143965,
      "latitude_deg": 40.09241289643956,
      "longitude_deg": 161.1239580054296,
      "height_km": 362.61827422079546,
      "semi_major_axis_km": 6736.38867000791,
      "eccentricity": 0.0003207,
      "inclination_deg": 53.0381,
      "raan_deg": 251.291,
      "arg_perigee_deg": 164.6408,
      "mean_anomaly_deg": 248.8876,
      "mean_motion_rev_day": 15.70225612
    },
    {
      "epoch": "2026-04-01T20:00:01.999008Z",
      "apogee_km": 359.4447990466815,
      "perigee_km": 355.6957043903749,
      "latitude_deg": -37.86532951762463,
      "longitude_deg": 80.56857385840968,
      "height_km": 371.2640193975984,
      "semi_major_axis_km": 6735.707251718528,
      "eccentricity": 0.0002783,
      "inclination_deg": 53.0396,
      "raan_deg": 246.343,
      "arg_perigee_deg": 170.8094,
      "mean_anomaly_deg": 139.3031,
      "mean_motion_rev_day": 15.70463896
    },
    {
      "epoch": "2026-04-02T20:00:01.999008Z",
      "apogee_km": 358.21900802594246,
      "perigee_km": 355.1546631807414,
      "latitude_deg": -22.018013227323838,
      "longitude_deg": -52.17828092909863,
      "height_km": 361.57952941262187,
      "semi_major_axis_km": 6734.823835603342,
      "eccentricity": 0.0002275,
      "inclination_deg": 53.0385,
      "raan_deg": 241.3927,
      "arg_perigee_deg": 177.9208,
      "mean_anomaly_deg": 29.7962,
      "mean_motion_rev_day": 15.70772906
    },
    {
      "epoch": "2026-04-02T22:00:01.999584Z",
      "apogee_km": 358.0153999020804,
      "perigee_km": 355.02103749874186,
      "latitude_deg": -31.655936422906567,
      "longitude_deg": 52.23922577092225,
      "height_km": 367.461138323496,
      "semi_major_axis_km": 6734.655218700411,
      "eccentricity": 0.00022231,
      "inclination_deg": 53.0392,
      "raan_deg": 240.9798,
      "arg_perigee_deg": 177.9667,
      "mean_anomaly_deg": 141.2582,
      "mean_motion_rev_day": 15.70831898
    },
    {
      "epoch": "2026-04-03T20:00:01.999008Z",
      "apogee_km": 357.0828923284653,
      "perigee_km": 354.21699260575224,
      "latitude_deg": 50.14777595029891,
      "longitude_deg": -139.4251772160608,
      "height_km": 361.2127055391529,
      "semi_major_axis_km": 6733.786942467109,
      "eccentricity": 0.0002128,
      "inclination_deg": 53.0385,
      "raan_deg": 236.4402,
      "arg_perigee_deg": 186.0668,
      "mean_anomaly_deg": 280.4917,
      "mean_motion_rev_day": 15.7113573
    },
    {
      "epoch": "2026-04-04T06:00:02.000160Z",
      "apogee_km": 356.6434162163432,
      "perigee_km": 353.7599312627008,
      "latitude_deg": -41.208081642307405,
      "longitude_deg": -89.14657823054834,
      "height_km": 369.4744981370874,
      "semi_major_axis_km": 6733.338673739521,
      "eccentricity": 0.00021412,
      "inclination_deg": 53.0387,
      "raan_deg": 234.3734,
      "arg_perigee_deg": 188.9843,
      "mean_anomaly_deg": 115.7971,
      "mean_motion_rev_day": 15.71292629
    },
    {
      "epoch": "2026-04-05T12:00:02.999808Z",
      "apogee_km": 355.3094856987427,
      "perigee_km": 352.92222883555587,
      "latitude_deg": -0.5799359247148939,
      "longitude_deg": 34.79602107509914,
      "height_km": 353.95568467340775,
      "semi_major_axis_km": 6732.252857267149,
      "eccentricity": 0.0001773,
      "inclination_deg": 53.0385,
      "raan_deg": 228.1793,
      "arg_perigee_deg": 197.9002,
      "mean_anomaly_deg": 342.7254,
      "mean_motion_rev_day": 15.71672785
    },
    {
      "epoch": "2026-04-05T20:00:03.000384Z",
      "apogee_km": 354.94878842558956,
      "perigee_km": 352.9722445947418,
      "latitude_deg": -53.13659013861186,
      "longitude_deg": -1.2810614878789144,
      "height_km": 371.91720144843225,
      "semi_major_axis_km": 6732.097516510165,
      "eccentricity": 0.0001468,
      "inclination_deg": 53.0383,
      "raan_deg": 226.528,
      "arg_perigee_deg": 207.2206,
      "mean_anomaly_deg": 60.5549,
      "mean_motion_rev_day": 15.71727184
    },
    {
      "epoch": "2026-04-06T06:00:02.000160Z",
      "apogee_km": 354.77682331357755,
      "perigee_km": 352.5511552704975,
      "latitude_deg": 50.0691574334214,
      "longitude_deg": 56.53319583442598,
      "height_km": 359.6218139549915,
      "semi_major_axis_km": 6731.800989292037,
      "eccentricity": 0.00016531,
      "inclination_deg": 53.0385,
      "raan_deg": 224.4595,
      "arg_perigee_deg": 204.6474,
      "mean_anomaly_deg": 262.1267,
      "mean_motion_rev_day": 15.71831034
    },
    {
      "epoch": "2026-04-07T14:00:01.999872Z",
      "apogee_km": 353.3253251517508,
      "perigee_km": 351.8304333770675,
      "latitude_deg": 52.658867124816055,
      "longitude_deg": -86.7756717642816,
      "height_km": 359.45646825694035,
      "semi_major_axis_km": 6730.714879264409,
      "eccentricity": 0.00011105,
      "inclination_deg": 53.038,
      "raan_deg": 217.8482,
      "arg_perigee_deg": 227.3753,
      "mean_anomaly_deg": 229.4423,
      "mean_motion_rev_day": 15.7221151
    },
    {
      "epoch": "2026-04-07T20:00:00.999360Z",
      "apogee_km": 353.17477274044086,
      "perigee_km": 351.7707675423899,
      "latitude_deg": 49.82010794198528,
      "longitude_deg": 142.88921107653962,
      "height_km": 358.9066656861096,
      "semi_major_axis_km": 6730.609770141415,
      "eccentricity": 0.0001043,
      "inclination_deg": 53.0378,
      "raan_deg": 216.6084,
      "arg_perigee_deg": 240.1581,
      "mean_anomaly_deg": 192.4072,
      "mean_motion_rev_day": 15.72248339
    },
    {
      "epoch": "2026-04-08T13:59:57.864768Z",
      "apogee_km": 352.7736338181203,
      "perigee_km": 351.360694755871,
      "latitude_deg": 9.028581868421801e-06,
      "longitude_deg": 166.05073260405302,
      "height_km": 353.3197657699061,
      "semi_major_axis_km": 6730.204164286995,
      "eccentricity": 0.00010497,
      "inclination_deg": 53.0391,
      "raan_deg": 212.8856,
      "arg_perigee_deg": 240.4215,
      "mean_anomaly_deg": 119.6698,
      "mean_motion_rev_day": 15.72390472
    },
    {
      "epoch": "2026-04-09T12:52:45.837696Z",
      "apogee_km": 352.14645643833137,
      "perigee_km": 350.7507403852205,
      "latitude_deg": 4.3128562218667e-05,
      "longitude_deg": 177.17862017052212,
      "height_km": 352.5021432076759,
      "semi_major_axis_km": 6729.585598411776,
      "eccentricity": 0.0001037,
      "inclination_deg": 53.0384,
      "raan_deg": 208.153,
      "arg_perigee_deg": 257.6252,
      "mean_anomaly_deg": 102.465,
      "mean_motion_rev_day": 15.72607272
    },
    {
      "epoch": "2026-04-10T07:10:52.350528Z",
      "apogee_km": 351.57000727517243,
      "perigee_km": 350.3237809379825,
      "latitude_deg": 6.84114345065564e-05,
      "longitude_deg": -101.88462836589493,
      "height_km": 351.7395078959171,
      "semi_major_axis_km": 6729.083894106577,
      "eccentricity": 9.26e-05,
      "inclination_deg": 53.0388,
      "raan_deg": 204.3685,
      "arg_perigee_deg": 280.2969,
      "mean_anomaly_deg": 79.7945,
      "mean_motion_rev_day": 15.7278315
    }
  ]
}